{
  "type": "FeatureCollection",
  "features": [
    {
      "type": "Feature",
      "properties": {
        "norad_id": 32275,
        "name": "COSMOS 2433 (720)",
        "group": "glo-ops",
        "lat": -38.16850371243346,
        "lon": -58.91838625450224,
        "alt_km": 19128.314792633628,
        "timestamp": "2025-12-21T11:31:43.116412+00:00",
        "meta_object_name": "COSMOS 2433 (720)",
        "meta_object_id": "2007-052A",
        "meta_epoch": "2025-12-21T01:36:08.610912",
        "meta_mean_motion": 2.13104226,
        "meta_eccentricity": 0.0005187,
        "meta_inclination": 65.6786,
        "meta_ra_of_asc_node": 321.9257,
        "meta_arg_of_pericenter": 255.4545,
        "meta_mean_anomaly": 104.4812,
        "meta_ephemeris_type": 0,
        "meta_classification_type": "U",
        "meta_norad_cat_id": 32275,
        "meta_element_set_no": 999,
        "meta_rev_at_epoch": 14126,
        "meta_bstar": 0,
        "meta_mean_motion_dot": -4.8e-07,
        "meta_mean_motion_ddot": 0,
        "tle_line1": "1 32275U 07052A   25355.06676633 -.00000048  00000+0  00000+0 0  9991",
        "tle_line2": "2 32275  65.6786 321.9257 0005187 255.4545 104.4812  2.13104226141264"
      },
      "geometry": {
        "type": "Point",
        "coordinates": [
          -58.91838625450224,
          -38.16850371243346
        ]
      }
    },
    {
      "type": "Feature",
      "properties": {
        "norad_id": 32276,
        "name": "COSMOS 2432 (719)",
        "group": "glo-ops",
        "lat": -64.36691219209324,
        "lon": -147.69395652298783,
        "alt_km": 19118.78521846832,
        "timestamp": "2025-12-21T11:31:43.116438+00:00",
        "meta_object_name": "COSMOS 2432 (719)",
        "meta_object_id": "2007-052B",
        "meta_epoch": "2025-12-21T05:56:02.961600",
        "meta_mean_motion": 2.13103424,
        "meta_eccentricity": 0.0011337,
        "meta_inclination": 65.6945,
        "meta_ra_of_asc_node": 322.044,
        "meta_arg_of_pericenter": 314.296,
        "meta_mean_anomaly": 128.5462,
        "meta_ephemeris_type": 0,
        "meta_classification_type": "U",
        "meta_norad_cat_id": 32276,
        "meta_element_set_no": 999,
        "meta_rev_at_epoch": 14129,
        "meta_bstar": 0,
        "meta_mean_motion_dot": -4.7e-07,
        "meta_mean_motion_ddot": 0,
        "tle_line1": "1 32276U 07052B   25355.24725650 -.00000047  00000+0  00000+0 0  9995",
        "tle_line2": "2 32276  65.6945 322.0440 0011337 314.2960 128.5462  2.13103424141297"
      },
      "geometry": {
        "type": "Point",
        "coordinates": [
          -147.69395652298783,
          -64.36691219209324
        ]
      }
    },
    {
      "type": "Feature",
      "properties": {
        "norad_id": 32393,
        "name": "COSMOS 2434 (721)",
        "group": "glo-ops",
        "lat": -24.894004280785133,
        "lon": 30.82508573473887,
        "alt_km": 19142.25189722503,
        "timestamp": "2025-12-21T11:31:43.116454+00:00",
        "meta_object_name": "COSMOS 2434 (721)",
        "meta_object_id": "2007-065A",
        "meta_epoch": "2025-12-20T12:03:15.367680",
        "meta_mean_motion": 2.13101459,
        "meta_eccentricity": 0.00047811,
        "meta_inclination": 64.3153,
        "meta_ra_of_asc_node": 197.9412,
        "meta_arg_of_pericenter": 71.786,
        "meta_mean_anomaly": 105.6785,
        "meta_ephemeris_type": 0,
        "meta_classification_type": "U",
        "meta_norad_cat_id": 32393,
        "meta_element_set_no": 999,
        "meta_rev_at_epoch": 13996,
        "meta_bstar": 0,
        "meta_mean_motion_dot": 1e-06,
        "meta_mean_motion_ddot": 0,
        "tle_line1": "1 32393U 07065A   25354.50226120  .00000100  00000+0  00000+0 0  9994",
        "tle_line2": "2 32393  64.3153 197.9412 0004781  71.7860 105.6785  2.13101459139962"
      },
      "geometry": {
        "type": "Point",
        "coordinates": [
          30.82508573473887,
          -24.894004280785133
        ]
      }
    },
    {
      "type": "Feature",
      "properties": {
        "norad_id": 32395,
        "name": "COSMOS 2436 (723)",
        "group": "glo-ops",
        "lat": -17.32653715747542,
        "lon": -170.65277873540342,
        "alt_km": 19093.14216948929,
        "timestamp": "2025-12-21T11:31:43.116468+00:00",
        "meta_object_name": "COSMOS 2436 (723)",
        "meta_object_id": "2007-065C",
        "meta_epoch": "2025-12-21T05:24:13.396320",
        "meta_mean_motion": 2.13100316,
        "meta_eccentricity": 0.0017785,
        "meta_inclination": 64.3243,
        "meta_ra_of_asc_node": 197.9873,
        "meta_arg_of_pericenter": 10.0202,
        "meta_mean_anomaly": 135.0649,
        "meta_ephemeris_type": 0,
        "meta_classification_type": "U",
        "meta_norad_cat_id": 32395,
        "meta_element_set_no": 999,
        "meta_rev_at_epoch": 13993,
        "meta_bstar": 0,
        "meta_mean_motion_dot": 9.7e-07,
        "meta_mean_motion_ddot": 0,
        "tle_line1": "1 32395U 07065C   25355.22515505  .00000097  00000+0  00000+0 0  9999",
        "tle_line2": "2 32395  64.3243 197.9873 0017785  10.0202 135.0649  2.13100316139933"
      },
      "geometry": {
        "type": "Point",
        "coordinates": [
          -170.65277873540342,
          -17.32653715747542
        ]
      }
    },
    {
      "type": "Feature",
      "properties": {
        "norad_id": 36111,
        "name": "COSMOS 2456 (730)",
        "group": "glo-ops",
        "lat": 4.483677522837754,
        "lon": 79.15567612560244,
        "alt_km": 19126.576037157607,
        "timestamp": "2025-12-21T11:31:43.116482+00:00",
        "meta_object_name": "COSMOS 2456 (730)",
        "meta_object_id": "2009-070A",
        "meta_epoch": "2025-12-20T03:13:18.516576",
        "meta_mean_motion": 2.13103685,
        "meta_eccentricity": 0.00033011,
        "meta_inclination": 64.904,
        "meta_ra_of_asc_node": 77.0852,
        "meta_arg_of_pericenter": 296.9564,
        "meta_mean_anomaly": 115.2996,
        "meta_ephemeris_type": 0,
        "meta_classification_type": "U",
        "meta_norad_cat_id": 36111,
        "meta_element_set_no": 999,
        "meta_rev_at_epoch": 12461,
        "meta_bstar": 0,
        "meta_mean_motion_dot": -2.2e-07,
        "meta_mean_motion_ddot": 0,
        "tle_line1": "1 36111U 09070A   25354.13424209 -.00000022  00000+0  00000+0 0  9995",
        "tle_line2": "2 36111  64.9040  77.0852 0003301 296.9564 115.2996  2.13103685124610"
      },
      "geometry": {
        "type": "Point",
        "coordinates": [
          79.15567612560244,
          4.483677522837754
        ]
      }
    },
    {
      "type": "Feature",
      "properties": {
        "norad_id": 36112,
        "name": "COSMOS 2457 (733)",
        "group": "glo-ops",
        "lat": 40.652372876264586,
        "lon": -126.8019341696044,
        "alt_km": 19115.10102709702,
        "timestamp": "2025-12-21T11:31:43.116496+00:00",
        "meta_object_name": "COSMOS 2457 (733)",
        "meta_object_id": "2009-070B",
        "meta_epoch": "2025-12-21T01:50:33.569952",
        "meta_mean_motion": 2.13101099,
        "meta_eccentricity": 0.0004535,
        "meta_inclination": 64.8901,
        "meta_ra_of_asc_node": 76.9001,
        "meta_arg_of_pericenter": 162.2695,
        "meta_mean_anomaly": 22.1351,
        "meta_ephemeris_type": 0,
        "meta_classification_type": "U",
        "meta_norad_cat_id": 36112,
        "meta_element_set_no": 999,
        "meta_rev_at_epoch": 12463,
        "meta_bstar": 0,
        "meta_mean_motion_dot": -1.4e-07,
        "meta_mean_motion_ddot": 0,
        "tle_line1": "1 36112U 09070B   25355.07677743 -.00000014  00000+0  00000+0 0  9994",
        "tle_line2": "2 36112  64.8901  76.9001 0004535 162.2695  22.1351  2.13101099124630"
      },
      "geometry": {
        "type": "Point",
        "coordinates": [
          -126.8019341696044,
          40.652372876264586
        ]
      }
    },
    {
      "type": "Feature",
      "properties": {
        "norad_id": 36402,
        "name": "COSMOS 2460 (732)",
        "group": "glo-ops",
        "lat": 41.165750803439096,
        "lon": 117.00348960970722,
        "alt_km": 19130.229520109617,
        "timestamp": "2025-12-21T11:31:43.116508+00:00",
        "meta_object_name": "COSMOS 2460 (732)",
        "meta_object_id": "2010-007C",
        "meta_epoch": "2025-12-19T13:42:43.098624",
        "meta_mean_motion": 2.131063,
        "meta_eccentricity": 0.0002543,
        "meta_inclination": 65.526,
        "meta_ra_of_asc_node": 320.5423,
        "meta_arg_of_pericenter": 279.9868,
        "meta_mean_anomaly": 189.087,
        "meta_ephemeris_type": 0,
        "meta_classification_type": "U",
        "meta_norad_cat_id": 36402,
        "meta_element_set_no": 999,
        "meta_rev_at_epoch": 12290,
        "meta_bstar": 0,
        "meta_mean_motion_dot": -5.7e-07,
        "meta_mean_motion_ddot": 0,
        "tle_line1": "1 36402U 10007C   25353.57133216 -.00000057  00000+0  00000+0 0  9990",
        "tle_line2": "2 36402  65.5260 320.5423 0002543 279.9868 189.0870  2.13106300122906"
      },
      "geometry": {
        "type": "Point",
        "coordinates": [
          117.00348960970722,
          41.165750803439096
        ]
      }
    }
  ]
}